Station,Code,Lat,Lon,Street,Number,Postal Code,City,Country
s-Hertogenbosch,HT,51.69048,5.29362,Stationspasserelle,10,5211 AZ,'s-Hertogenbosch,Netherlands
s-Hertogenbosch Oost,HTO,51.70055389,5.318333149,Zandzuigerstraat,101,5231 XW,'s-Hertogenbosch,Netherlands
t Harde,HDE,52.4091682,5.893611,Eperweg,123,8084 HD,'t Harde,Netherlands
Aachen Hbf,AHBF,50.7678,6.091499,Bahnhofplatz,1,52064,Aachen,Germany
Aachen Rothe Erde,ARE,50.77017648,6.116466522,Adalbertsteinweg,284,52066,Aachen,Germany
Aachen Schanz,ASCH,50.76987114,6.073830128,An der Schanz,3,52064,Aachen,Germany
Aachen West,AW,50.78036,6.070715,Seffenter Weg,??,52074,Aachen,Germany
Aalten,ATN,51.92132652,6.578627229,Stationsstraat,38,7122 AT,Aalten,Netherlands
Abcoude,AC,52.2785,4.977,Spoorlaan,??,1391,Abcoude,Netherlands
Ahaus,EAHS,52.07979612,7.016358376,Parallelstraße,10,48683,Ahaus,Germany
Aime-la-Plagne,AIME,45.55438,6.64869,Avenue de la Gare,118,73210,Aime,France
Aix-en-Provence,AIXTGV,43.52281908,5.445313454,Avenue Maurice Blondel,2-4,13100,Aix-en-Provence,France
Akkrum,AKM,53.04639053,5.84361124,Alde Rykswei,??,8491,Akkrum,Netherlands
Albertville,ALBERT,45.67302,6.38306,Avenue Général de Gaulle,6,73200,Albertville,France
Alessandria,ALESS,44.90927,8.60649,Spalto Borgoglio,57,15121,Alessandria,Italy
Alkmaar,AMR,52.63777924,4.739722252,Stationsweg,43B,1815 CB,Alkmaar,Netherlands
Alkmaar Noord,AMRN,52.64389038,4.764166832,Drechterwaard,102-104,1824 DX,Alkmaar,Netherlands
Almelo,AML,52.35805511,6.653888702,Parallelweg,50,7604 TX,Almelo,Netherlands
Almelo de Riet,AMRI,52.34194565,6.666666508,Rietstraat,226,7606 BW,Almelo,Netherlands
Almere Buiten,ALMB,52.39416504,5.278055668,Keerkringplein,48,1334 BS,Almere,Netherlands
Almere Centrum,ALM,52.37503,5.21764,Busplein,40,1315 KV,Almere,Netherlands
Almere Muziekwijk,ALMM,52.36750031,5.190277576,Chopinpad,??,1323,Almere,Netherlands
Almere Oostvaarders,ALMO,52.40333176,5.300555706,Insulindepad,??,1335,Almere,Netherlands
Almere Parkwijk,ALMP,52.37666702,5.244722366,Spoorbaanpad,95,1326 CN,Almere,Netherlands
Almere Poort,AMPO,52.342778,5.151944,??,??,1362,Almere,Netherlands
Alphen a/d Rijn,APN,52.12444305,4.657777786,Stationsplein,10,2405 BK,Alphen aan Den Rijn,Netherlands
Altenberge,EABG,52.05223,7.481202,Eisenbahnstraße,2,48341,Altenberge,Germany
Amersfoort Centraal,AMF,52.1538887,5.370555401,Stationsplein,147,3818 LE,Amersfoort,Netherlands
Amersfoort Schothorst,AMFS,52.17482214,5.403888702,Zielhorsterweg,65,3813 ZX,Amersfoort,Netherlands
Amersfoort Vathorst,AVAT,52.19277954,5.433888912,Laakboulevard,??,3829,Hooglanderveen,Netherlands
Amsterdam Amstel,ASA,52.34666824,4.917778015,Julianaplein,1A,1097 DN,Amsterdam,Netherlands
Amsterdam Bijlmer ArenA,ASB,52.31222153,4.946944237,ArenA Boulevard,618,1102,Amsterdam Zuid-Oost,Netherlands
Amsterdam Centraal,ASD,52.37888718,4.900277615,Stationsplein,2,1012,Amsterdam,Netherlands
Amsterdam Holendrecht,ASHD,52.29844,4.95972,Meibergdreef,2,1105 AX,Amsterdam Zuid-Oost,Netherlands
Amsterdam Lelylaan,ASDL,52.35777664,4.833889008,Cornelis Lelylaan,37,1062 HD,Amsterdam,Netherlands
Amsterdam Muiderpoort,ASDM,52.36055374,4.931111336,Oosterspoorplein,1,1093 JW,Amsterdam,Netherlands
Amsterdam RAI,RAI,52.33722305,4.890277863,Ringweg Zuid,??,??,Amsterdam,Netherlands
Amsterdam Science Park,ASSP,52.35526,4.94651,Carolina MacGillavrylaan,1882,1098,Amsterdam,Netherlands
Amsterdam Sloterdijk,ASS,52.38888931,4.837777615,Orlyplein,109,1043 DT,Amsterdam,Netherlands
Amsterdam Van der Madeweg,VMW,52.330134,4.92975,Entrada,512,1115 SE,Duivendrecht,Netherlands
Amsterdam Zuid,ASDZ,52.33889008,4.871666431,Ringweg Zuid,??,1082,Amsterdam,Netherlands
Anna Paulowna,ANA,52.86722183,4.811110973,Stationsweg,21,1761 EB,Anna Paulowna,Netherlands
Antwerpen-Berchem,BERCH,51.2001783,4.4327702,Binnensingel,103,2600,Antwerpen,Belgium
Antwerpen-Centraal,ATW,51.2161,4.42122,Pelikaanstraat,29,2018,Antwerpen,Belgium
Antwerpen-Luchtbal,ATWLB,51.2449375,4.4251543,Groenendaallaan,??,2170,Antwerpen,Belgium
Antwerpen-Noorderdokken,ANDD,51.261686,4.4274315,Argentiniëlaan,2,2030,Antwerpen,Belgium
Antwerpen-Zuid,FNZD,51.19785,4.39027,Kolonel Silvertopstraat,??,2018,Antwerpen,Belgium
Apeldoorn,APD,52.20916748,5.970277786,Stationsplein,22,7311,Apeldoorn,Netherlands
Apeldoorn De Maten,APDM,52.20527649,6.000555515,Laan van Zonnehoeve,13,7325 AV,Apeldoorn,Netherlands
Apeldoorn Osseveld,APDO,52.21527863,6.004444599,Linie,542,7325 DZ,Apeldoorn,Netherlands
Appingedam,APG,53.3258135,6.8619577,Spoorbaan,2,9901 DD,Appingedam,Netherlands
Arkel,AKL,51.87194443,4.992777824,Parallelweg,??,4241,Arkel,Netherlands
Arnemuiden,ARN,51.50166702,3.669166565,Singel,??,4341,Arnemuiden,Netherlands
Arnhem Centraal,AH,51.98500061,5.899166584,Renssenbrug,??,6811,Arnhem,Netherlands
Arnhem Presikhaaf,AHPR,51.98805618,5.943888664,Eleonorastraat,13,6824 EX,Arnhem,Netherlands
Arnhem Velperpoort,AHP,51.98527908,5.919444561,Sonsbeeksingel,153-155,6822 BM,Arnhem,Netherlands
Arnhem Zuid,AHZ,51.95500183,5.851944447,Viaduct Schuytgraaf,??,??,Arnhem,Netherlands
Ashford International,ASHFD,51.14371,0.87612,Dover Place,1,TN23 1HU,Ashford,United Kingdom
Assen,ASN,52.99166489,6.570833206,Stationsplein,2,9401 LB,Assen,Netherlands
Augsburg Hbf,MA,48.36543071,10.88547707,Viktoriastraße,1,86150,Augsburg,Germany
Avignon TGV,AVTGV,43.92194,4.78604,Place de l'Europe,9015F,84000,Avignon,France
Baarn,BRN,52.20833206,5.280833244,Stationsplein,66A,3743 KM,Baarn,Netherlands
Bad Bentheim,BH,52.3096856,7.158536911,Am Bahnhof,1I,48455,Bad Bentheim,Germany
Bad Nieuweschans,NSCH,53.1844,7.19937,Stationsstraat,27,9693 AA,Bad Nieuweschans,Netherlands
Bad Oeynhausen,OEYNH,52.205461,8.796932,Herforder Straße,80,32545,Bad Oeynhausen,Germany
Bad Schandau,BADSCH,50.91851,14.14,Am Bahnhof,5,1814,Bad Schandau,Germany
Baden,BADENZ,47.47638,8.30772,Bahnhofstrasse,25,5400,Baden,Switzerland
Baden-Baden,RBB,48.790082,8.190468,B3,??,76532,Baden-Baden,Germany
Baflo,BF,53.3608969,6.5185581,Stationsweg,2,9953 RG,Baflo,Netherlands
Barendrecht,BRD,51.85472107,4.553333282,Zuideinde,??,2991,Barendrecht,Netherlands
Barneveld Centrum,BNC,52.13999939,5.590277672,Stationsplein,4,3771 ES,Barneveld,Netherlands
Barneveld Noord,BNN,52.1613884,5.598055363,Spoorlijnpad,??,3771,Barneveld,Netherlands
Barneveld Zuid,BNZ,52.128853,5.60246,Oud Vellerseweg,10,3772 PA,Barneveld,Netherlands
Basel Bad Bf,BASELB,47.56815,7.6073,Schwarzwaldallee,200,4058,Basel,Switzerland
Basel SBB,BASELS,47.5474,7.58956,Centralbahnstrasse,18,4051,Basel,Switzerland
Bedum,BDM,53.3068857,6.593054,Parallelweg,??,9781,Bedum,Netherlands
Beek-Elsloo,BK,50.94749832,5.78666687,Aan de Drie Heren,4,6191 BH,Beek,Netherlands
Beesd,BSD,51.89944458,5.194444656,Stationsweg,4,4153 RD,Beesd,Netherlands
Beilen,BL,52.85472107,6.521111012,Stationslaan,11,9411 PS,Beilen,Netherlands
Belsele,LLB,51.150833,4.088332,Kerkstraat,28,9111,Sint-Niklaas,Belgium
Bergen op Zoom,BGN,51.49388885,4.296111107,Parallelweg,56-57,4621 JS,Bergen op Zoom,Netherlands
Berlin Hbf,BERHBL,52.52503,13.36946,Europaplatz,2,10557,Berlin,Germany
Berlin Hbf (tief),BERHBT,52.525555,13.369444,Europaplatz,2,10557,Berlin,Germany
Berlin Ostbahnhof,BHF,52.5104989,13.4346995,Koppenstraße,3,10243,Berlin,Germany
Berlin Südkreuz,BPAF,52.47611,13.365,Hildegard-Knef-Platz,??,10829,Berlin,Germany
Berlin-Schönefeld Flug.,BERFL,52.3915,13.513,Flughafen,??,12529,Schönefeld,Germany
Berlin-Spandau,BSPD,52.5343152,13.1989467,Klosterstraße,2,13581,Berlin,Germany
Best,BET,51.50999832,5.389166832,Stationsstraat,1,5683 BA,Best,Netherlands
Beveren,FBR,51.208056,4.259444,Kruibekesteenweg,5,9120,Beveren,Belgium
Beverwijk,BV,52.47833252,4.656666756,A22,??,1948,Beverwijk,Netherlands
Bielefeld Hbf,BIELEF,52.029261,8.532722,Am Bahnhof,8,33602,Bielefeld,Germany
Bilthoven,BHV,52.13000107,5.203888893,Spoorlaan,3A,3721 PA,Bilthoven,Netherlands
Bilzen,FIE,50.868333,5.509167,Nieuwstraat,27,3740,Bilzen,Belgium
Bischofshofen,BISCHO,47.41748,13.21991,Bahnhofgasse,2,5500,Bischofshofen,Austria
Blerick,BR,51.37250137,6.15500021,Kazernestraat,3,5928 NL,Venlo,Netherlands
Bloemendaal,BLL,52.40416718,4.627500057,Zuider Stationsweg,20,2061 HE,Bloemendaal,Netherlands
Bludenz,BLUDEN,47.15473,9.81456,Bahnhofplatz,7,6700,Bludenz,Austria
Bodegraven,BDG,52.08139038,4.746110916,Stationsplein,5,2411 EH,Bodegraven,Netherlands
Boisheim,KBOI,51.274323,6.274591,Raiffeisenstraße,24,41751,Viersen,Germany
Bonn Hbf,BONN,50.73201416,7.097125053,Am Hauptbahnhof,4-6,53111,Bonn,Germany
Boom,FMB,51.09063,4.36057,Statiestraat,??,2850,Boom,Belgium
Bork,EBOK,51.66988,7.45664,Bahnhofstraße,60,59379,Selm,Germany
Borne,BN,52.29888916,6.748055458,Ruwerstraat,130,7621 SV,Borne,Netherlands
Boskoop,BSK,52.07777786,4.646944523,Parklaan,8-10,2771 GB,Boskoop,Netherlands
Bourg-St-Maurice,BOURG,45.61918,6.77167,Place de la Gare,1,73700,Bourg-Saint-Maurice,France
Boven-Hardinxveld,BHDV,51.832222,4.878056,Parallelweg,166,3371 GH,Hardinxveld-Giessendam,Netherlands
Bovenkarspel Flora,BKF,52.69610977,5.252777576,Broekerhavenweg,75,1611 CA,Bovenkarspel,Netherlands
Bovenkarspel-Grootebroek,BKG,52.69499969,5.23777771,Middenweg,14,1611 KP,Bovenkarspel,Netherlands
Boxmeer,BMR,51.64452177,5.939033031,Stationsweg,1,5831 CR,Boxmeer,Netherlands
Boxtel,BTL,51.58433,5.31912,Traverse,??,5281,Boxtel,Netherlands
Braunschweig Hbf,BRAUNS,52.25224,10.53971,Berliner Platz,1,38102,Braunschweig,Germany
Breda,BD,51.59555435,4.78000021,Centraal Busstation,??,4815,Breda,Netherlands
Breda-Prinsenbeek,BDPB,51.60638809,4.720833302,Moskespad,??,4822,Breda,Netherlands
Bressoux,BRESSX,50.643829,5.6112542,Rue dela Lèche,34,4020,Liège,Belgium
Breukelen,BKL,52.17149,4.9906,De Corridor,5,3621 ZA,Breukelen,Netherlands
Breyell,KBRY,51.294615,6.241174,Josefstraße,67,41334,Nettetal,Germany
Brummen,BMN,52.09111023,6.146944523,Stationsweg,1,6971 BX,Brummen,Netherlands
Brussel Nat. Luchthaven,FBNL,50.896389,4.481943,Leopoldlaan,260,1934,Zaventem,Belgium
Brussel-Centraal,BRUSC,50.8454658,4.3571135,Kantersteen,8,1000,Brussel,Belgium
Brussel-Noord,BRUSN,50.8605262,4.3617873,Aarschotstraat,52,1030,Schaarbeek,Belgium
Brussel-Zuid/Midi,BRUSZ,50.8350108,4.3345957,Rue de France,42,1070,Saint-Gilles,Belgium
Buitenpost,BP,53.2564547,6.1446496,Stationsplein,2,9285 VW,Buitenpost,Netherlands
Bunde,BDE,50.89694595,5.736666679,Prinses Wilhelminaweg,27,6241 EV,Bunde,Netherlands
Bunnik,BNK,52.06305695,5.194444656,Groeneweg,150B,3981 CP,Bunnik,Netherlands
Bussum Zuid,BSMZ,52.26583481,5.16305542,Struiheiweg,??,1406,Bussum,Netherlands
Bönen,EBEO,51.598015,7.757296,Am Bahnhof,2,59199,Bönen,Germany
Bünde (Westf),BUENDE,52.202075,8.573876,Bahnhofstraße,90,32257,Bünde,Germany
Capelle Schollevaar,CPS,51.95416641,4.584166527,Stationsplein,1B,2907 MJ,Capelle aan Den IJssel,Netherlands
Castricum,CAS,52.54583359,4.658611298,Stationsweg,6,1901 AA,Castricum,Netherlands
Chambéry,CHAMB,45.57127,5.91953,Avenue de la Boisse,2-80,73000,Chambéry,France
Chevremont,CVM,50.87611008,6.059722424,Schoutstraat,73,6463 EE,Kerkrade,Netherlands
Chur,CHUR,46.853333,9.528333,Bahnhofplatz,1,7000,Chur,Switzerland
Coesfeld (Westf),ECMF,51.939,7.1642,Bahnweg,1,48653,Coesfeld,Germany
Coevorden,CO,52.66361237,6.735555649,Stationsstraat,16,7741 EK,Coevorden,Netherlands
Como,COMO,45.80936,9.07325,Via Tokamachi,??,22100,Como,Italy
Cuijk,CK,51.72668259,5.874295235,Stationsplein,2-3,5431 CE,Cuijk,Netherlands
Culemborg,CL,51.94666672,5.226944447,Parallelweg Oost,19,4103 NC,Culemborg,Netherlands
Daarlerveen,DA,52.4407702,6.5759947,Grote Veenweg,2-4,7687 AV,Daarlerveen,Netherlands
Dalen,DLN,52.69416809,6.758055687,Kymmelskampen,3-4,7751 GN,Dalen,Netherlands
Dalfsen,DL,52.49833298,6.258611202,Heinoseweg,1,7722 JM,Dalfsen,Netherlands
De Vink,DVNK,52.14722061,4.45638895,Maria Austriapad,??,2331,Leiden,Netherlands
De Westereen,DWE,53.24817,6.03463,Bûterwei,14,9271 EN,De Westereen,Netherlands
Decin hl.n.,DECIN,50.77342,14.20125,Československé mládeže,4,405 02,Děčín,Czech Republic
Deinum,DEI,53.1888115,5.7281572,Spoorstrjitte,18,9033 WJ,Deinum,Netherlands
Delden,DDN,52.25999832,6.716111183,De Reigerstraat,78,7491 XV,Delden,Netherlands
Delft,DT,52.00666809,4.356389046,Van Leeuwenhoeksingel,42B,2611 AC,Delft,Netherlands
Delft Zuid,DTZ,51.99083328,4.364722252,Kruithuispad,??,2623 CS,Delft,Netherlands
Delfzijl,DZ,53.3336625,6.9240797,Johan van Den Kornputplein,1A,9934 EA,Delfzijl,Netherlands
Delfzijl West,DZW,53.3320834,6.9069092,Hogelandsterweg,??,??,Delfzijl,Netherlands
Den Dolder,DLD,52.14027786,5.242777824,Fornheselaan,50,3734 GD,Den Dolder,Netherlands
Den Haag Centraal,GVC,52.08027649,4.324999809,Rijnstraat,8,2515 XP,Den Haag,Netherlands
Den Haag HS,GV,52.06972122,4.322500229,Stationsplein,49,2515 BW,Den Haag,Netherlands
Den Haag Laan v NOI,LAA,52.07860947,4.342777729,Van Alphenstraat,92,2274 ND,Voorburg,Netherlands
Den Haag Mariahoeve,GVM,52.0905571,4.36944437,Appelgaarde,??,2272 TD,Voorburg,Netherlands
Den Haag Moerwijk,GVMW,52.05389023,4.308610916,Hildebrandstraat,90,2524 VL,Den Haag,Netherlands
Den Haag Ypenburg,YPB,52.05527878,4.392222404,Ypenburgse Stationsweg,??,2496,Den Haag,Netherlands
Den Helder,HDR,52.95527649,4.761111259,Boerhaavestraat,38,1782 AB,Den Helder,Netherlands
Den Helder Zuid,HDRZ,52.93249893,4.764166832,Voeetgangers/fietstunnel station Zuid,??,1785,Den Helder,Netherlands
Deurne,DN,51.45583344,5.788888931,Fabriekstraat,16,5753 AH,Deurne,Netherlands
Deventer,DV,52.25749969,6.160555363,Stationsplein,6,7411 HB,Deventer,Netherlands
Deventer Colmschate,DVC,52.25027847,6.214444637,Piet van Donkplein,1,7422 LW,Deventer,Netherlands
Didam,DID,51.933502,6.1324106,Stationslaan,5,6942 EG,Didam,Netherlands
Diemen,DMN,52.34583282,4.965555668,Martin Luther Kinglaan,24,1111,Diemen,Netherlands
Diemen Zuid,DMNZ,52.33027649,4.955833435,Diemerdreef,2,1112 CK,Diemen,Netherlands
Diepenbeek,GDP,50.910278,5.419722,Spoorstraat,1,3590,Diepenbeek,Belgium
Dieren,DR,52.04499817,6.103055477,Noorder Parallelweg,27,6951 AA,Dieren,Netherlands
Doetinchem,DTC,51.9585962,6.2962148,Stationsplein,8,7005 AK,Doetinchem,Netherlands
Doetinchem De Huet,DTCH,51.9591413,6.2598521,Jan Willinkstraat,2,7006 NA,Doetinchem,Netherlands
Domodossola,DOMOD,46.11529,8.29624,Piazza Giacomo Matteotti,25,28845,Domodossola,Italy
Dordrecht,DDR,51.80722046,4.66833353,Stationsplein,1,3311 JV,Dordrecht,Netherlands
Dordrecht Stadspolders,DDRS,51.80194473,4.716666698,Dudokplein,200,3315 KH,Dordrecht,Netherlands
Dordrecht Zuid,DDZD,51.79000092,4.671389103,Randweg,??,3318,Dordrecht,Netherlands
Dortmund Derne,EDD,51.56754,7.52855,Molkenstraße,7B/C,44329,Dortmund,Germany
Dortmund Hbf,EDO,51.517896,7.45929,Königswall,15,44137,Dortmund,Germany
Dortmund Kirchderne,EDKD,51.547076,7.510099,Rüschebrinkstraße,408,44328,Dortmund,Germany
Dresden Hbf,DRESD,51.04056,13.73203,Wiener Platz,4,1069,Dresden,Germany
Dresden-Neustadt,DRESDN,51.06581,13.741,Schlesischer Platz,1,1097,Dresden,Germany
Driebergen-Zeist,DB,52.0652771,5.258611202,Stationsweg,4,3972 KA,Driebergen-Rijsenburg,Netherlands
Driehuis,DRH,52.44250107,4.638055325,Van Den Vondellaan,100,1985 BD,Driehuis,Netherlands
Dronrijp,DRP,53.1778086,5.6347411,Hatzum,13B,9035 VK,Dronryp,Netherlands
Dronten,DRON,52.5344,5.72089,De Noord,??,8251,Dronten,Netherlands
Duffel,FDP,51.091389,4.493056,Spoorweglaan,??,2570,Duffel,Belgium
Duisburg Hbf,DUISB,51.42977857,6.775903702,Kammerstraße,3,47057,Duisburg,Germany
Duiven,DVN,51.94333267,6.014722347,Parallelweg,32,6922 HR,Duiven,Netherlands
Duivendrecht,DVD,52.32333374,4.936388969,Stationsplein,1,1115 BZ,Duivendrecht,Netherlands
Dülken,KDUL,51.257149,6.33793,Am Bahnhof,1,41751,Viersen,Germany
Dülmen,EDULH,51.827927,7.295756,Baumschulenweg,70,48249,Dülmen,Germany
Düren,KDR,50.8094,6.48203,Hauptbahnhof,1,52351,Düren,Germany
Düsseldorf Hbf,DUSSEL,51.220146,6.793137,Konrad-Adenauer-Platz,14,40210,Düsseldorf,Germany
Ebbsfleet International,EBBS,51.44297,0.32095,International Way,??,DA11,??,United Kingdom
Echt,EC,51.10055542,5.878889084,Stationsweg,1,6101 HK,Echt,Netherlands
Ede Centrum,EDC,52.04360962,5.66833353,Museumplein,7,6711 NA,Ede,Netherlands
Ede-Wageningen,ED,52.02777863,5.673055649,Klinkenbergerweg,116,6711 ML,Ede,Netherlands
Eijs-Wittem,WTM,50.82317,5.92479,Wittemerweg,5,6287 AA,Eys,Netherlands
Eijsden,EDN,50.77194595,5.710000038,Stationsplein,7-8,6245 AE,Eijsden,Netherlands
Eilendorf,EDF,50.785561,6.154367,Kehrbrückstraße,17,52080,Aachen,Germany
Eindh Beukenln tot 13 dec,EHB,51.45111084,5.455833435,Achtseweg Zuid,151,5651 GW,Eindhoven,Netherlands
Eindhoven,EHV,51.44333267,5.481389046,Kennedyplein,230,5611,Eindhoven,Netherlands
Eindhoven Strijp-S,EHS,51.45111084,5.455833435,Achtseweg Zuid,151,5651 GW,Eindhoven,Netherlands
Ekeren,LKR,51.2816099,4.4341227,Statiestraat,9,2180,Antwerpen,Belgium
Elst,EST,51.9169426,5.855000019,Oude Aamsestraat,??,6662,Elst,Netherlands
Emmen,EMN,52.79000092,6.89944458,Stationsstraat,79,7811 GS,Emmen,Netherlands
Emmen Zuid,EMNZ,52.74886637,6.874780655,Nieuw Amsterdamsestraat,86,??,Emmen,Netherlands
Emmerich,EM,51.834283,6.255718,Bahnhofstraße,23,46446,Emmerich am Rhein,Germany
Enkhuizen,EKZ,52.69916534,5.286388874,Bosmankade,??,1601,Enkhuizen,Netherlands
Ennepetal (Gevelsberg),EENP,51.304892,7.343285,Bahnhofstraße,19,58256,Ennepetal,Germany
Enschede,ES,52.22249985,6.889999866,Stationsplein,33,7511 JD,Enschede,Netherlands
Enschede De Eschmarke,ESE,52.22138977,6.951111317,Lenteweg,20,7532 RB,Enschede,Netherlands
Enschede Drien tot 13 dec,ESD,52.23749924,6.838889122,Forum,10,7521 PM,Enschede,Netherlands
Enschede Kennispark,ESK,52.23749924,6.838889122,Forum,10,7521 PM,Enschede,Netherlands
Epe (Westf),EEPE,52.18346,7.03009,Zum Bahnhof,42A,48599,Gronau (Westfalen),Germany
Ermelo,EML,52.30166626,5.614722252,Van Den Berghlaan,68,3853 KR,Ermelo,Netherlands
Eschweiler Hbf,ESCH,50.813532,6.251937,Reigate und Bandstead-Platz,1B,52249,Eschweiler,Germany
Eschweiler Talbahnhof,ESCHT,50.814759,6.263203,Bismarckstraße,3,52249,Eschweiler,Germany
Eschweiler-Nothberg,ESCHN,50.812827,6.293846,In den Benden,998,52249,Eschweiler,Germany
Eschweiler-Weisweiler,EWEIS,50.824371,6.320676,B264,??,52249,Eschweiler,Germany
Eschweiler-West,ESCHW,50.817712,6.251721,Steinstraße,11,52249,Eschweiler,Germany
Essen (Belgie),ESN,51.46261,4.45129,Stationsstraat,224,2910,Essen,Belgium
Etten-Leur,ETN,51.57500076,4.635833263,Stationsplein,2,4872 XL,Etten-Leur,Netherlands
Eygelshoven,EGH,50.89055634,6.045000076,Provinciale Weg,??,6469,Kerkrade,Netherlands
Eygelshoven Markt,EGHM,50.89604982,6.060247421,Hermanstraat,21,6471 XZ,Eygelshoven,Netherlands
Feanwalden,FWD,53.2351834,5.9886615,Stasjonwei,1,9269 PG,Feanwâlden,Netherlands
Fieberbrunn,FIEBER,47.49111,12.528,Bahnhofbichl,13,6391,Fieberbrunn,Austria
Franeker,FN,53.1824488,5.5483094,Anna Maria van Schurmansingel,59,8801 JR,Franeker,Netherlands
Frankfurt (M) Hbf,FFFM,50.1071222,8.6638338,Kaiserstraße,81,60329,Frankfurt am Main,Germany
Frankfurt (Oder),FRANKO,52.336163,14.546509,Bahnhofsplatz,11D,15230,Frankfurt (Oder),Germany
Frankfurt Flughafen Fernb,FNAF,50.05317103,8.57023716,B43,??,60549,Frankfurt am Main,Germany
Freiburg (Breisgau) Hbf,RF,47.99789,7.84134,Wentzingerstraße,28,79106,Freiburg im Breisgau,Germany
Gaanderen,GDR,51.93074,6.3486,Branderstraat,??,7011,Gaanderen,Netherlands
Geerdijk,GDK,52.47625,6.56674,Geerdijk,60-66,7681 SE,Vroomshoop,Netherlands
Geislingen,GEISL,48.61947742,9.841840267,Alte Weilersteige,??,73312,Geislingen an der Steige,Germany
Geldermalsen,GDM,51.88301,5.27127,Genteldijk,5,4191 LD,Geldermalsen,Netherlands
Geldrop,GP,51.41972351,5.550555706,Tournooiveld,14,5663 EA,Geldrop,Netherlands
Geleen Oost,GLN,50.96694565,5.843055725,Stationstraat,13,6166 CB,Geleen,Netherlands
Geleen-Lutterade,LUT,50.97555542,5.82472229,Westelijke Randweg,??,6162,Geleen,Netherlands
Gilze-Rijen,GZ,51.58361053,4.926111221,Parallelweg,10,5121 LD,Rijen,Netherlands
Glanerbrug,GBR,52.21861267,6.974444389,Vijverstraat,16,7532 AM,Enschede,Netherlands
Glons,LGL,50.750277,5.535278,La Vaux,1-9,4690,Bassenge,Belgium
Goes,GS,51.4980545,3.89055562,Stationspark,29A,4462 DZ,Goes,Netherlands
Goor,GO,52.23027802,6.584444523,Stationslaan,14-16,7471 AP,Goor,Netherlands
Gorinchem,GR,51.83388901,4.968333244,Stationsweg,17,4205 AA,Gorinchem,Netherlands
Gouda,GD,52.01750183,4.704444408,Stationsplein,8A,2801 AK,Gouda,Netherlands
Gouda Goverwelle,GDG,52.01499939,4.740833282,Willensplein,129,2807 PA,Gouda,Netherlands
Gramsbergen,GBG,52.60916519,6.675833225,De Oostermaat,46,7783 BX,Gramsbergen,Netherlands
Grijpskerk,GK,53.25574033,6.30977869,Stationsstraat,29-30,9843 AE,Grijpskerk,Netherlands
Gronau (Westf.),G,52.21521,7.022109,Bahnhofstraße,43,48599,Gronau (Westfalen),Germany
Groningen,GN,53.21055603,6.564722061,Stationsplein,26,9726 AE,Groningen,Netherlands
Groningen Europapark,GERP,53.20480027,6.5854178,Europapad,??,9722,Groningen,Netherlands
Groningen Noord,GNN,53.2301469,6.5563172,Kastanjelaan,??,9741,Groningen,Netherlands
Grou-Jirnsum,GW,53.08889008,5.822500229,A32,??,9001,Grou,Netherlands
Gulpen-Wijlre,WIJ,50.833056,5.898056,Parallelweg,7,6321,Wijlre,Netherlands
Göppingen,TGO,48.700191,9.651685,Bahnhofstraße,1,73033,Göppingen,Germany
Günzburg,MGZB,48.460226,10.278707,Bahnhofplatz,5,89312,Günzburg,Germany
Haarlem,HLM,52.38777924,4.638333321,Stationsplein,1-3,2011,Haarlem,Netherlands
Haarlem Spaarnwoude,HLMS,52.38277817,4.673055649,Camera Obscuraweg,??,??,Haarlem,Netherlands
Hagen Hbf,HAGEN,51.362747,7.460249,Am Hauptbahnhof,16Z,58089,Hagen,Germany
Halfweg-Zwanenburg,HWZB,52.385935,4.747165,Oude Haarlemmerstraatweg,??,1165,Halfweg,Netherlands
Hamburg Hbf,HAMH,53.5526394,10.0067103,Bahnsteig Gleis 7 + 8,??,20099,Hamburg,Germany
Hamm (Westf.),HAMM,51.678078,7.807821,Willy-Brandt-Platz,1,59065,Hamm,Germany
Hannover Hbf,HANN,52.3770401,9.7416759,Niki-de-Saint-Phalle-Promenade,17,30159,Hannover,Germany
Hardenberg,HDB,52.57277679,6.628611088,Parallelweg,5-6,7772 SB,Hardenberg,Netherlands
Harderwijk,HD,52.33750153,5.619722366,Stationsplein,2,3844 KR,Harderwijk,Netherlands
Hardinxveld Blauwe Zoom,HBZM,51.82944,4.81556,Schapedrift,99,3371 JJ,Hardinxveld-Giessendam,Netherlands
Hardinxveld-Giessendam,GND,51.83055496,4.835833549,Spoorweg,30,3373 AP,Hardinxveld-Giessendam,Netherlands
Haren,HRN,53.17610931,6.617222309,Emdaborg,38,9751 SJ,Haren,Netherlands
Harlingen,HLG,53.1704205,5.4251932,Stationsweg,6B,8861 GA,Harlingen,Netherlands
Harlingen Haven,HLGH,53.174917,5.4112885,Hoge Willemskade,??,8861,Harlingen,Netherlands
Hasselt,FHS,50.930555,5.3275,Tramstraat,3221,3500,Hasselt,Belgium
Heemskerk,HK,52.4952774,4.686944485,Kadijk,47,1967,Heemskerk,Netherlands
Heemstede-Aerdenhout,HAD,52.35916519,4.606666565,Leidsevaartweg,??,2106,Heemstede,Netherlands
Heerenveen,HR,52.96138763,5.914166451,Beugel,24,8447,Heerenveen,Netherlands
Heerenveen IJsstadion,HRY,52.93527603,5.943888664,Uraniumweg,2,8445 PH,Heerenveen,Netherlands
Heerhugowaard,HWD,52.66972351,4.822777748,Stationsplein,39,1703 WD,Heerhugowaard,Netherlands
Heerlen,HRL,50.89083481,5.974999905,Spoorsingel,65,6412 AA,Heerlen,Netherlands
Heerlen De Kissel,HRLK,50.89016893,5.9933424,Mijnspoorweg,??,6416,Heerlen,Netherlands
Heerlen Woonboulevard,HRLW,50.896667,5.952222,In de Cramer,88,6412,Heerlen,Netherlands
Heeze,HZE,51.38499832,5.569444656,De Leuren,19,5591 ND,Heeze,Netherlands
Heide,MID,51.364828,4.4604308,Heidestatieplein,4,2920,Kalmthout,Belgium
Heiloo,HLO,52.59944534,4.700555325,Hoog en Laag,125,1852 AX,Heiloo,Netherlands
Heino,HNO,52.42722321,6.221111298,Stationsweg,31,8141 SK,Heino,Netherlands
Helmond,HM,51.47555542,5.661944389,Stationsplein,7,5701 PE,Helmond,Netherlands
Helmond 't Hout,HMH,51.46794,5.63085,Meester Stikkerplein,??,5707,Helmond,Netherlands
Helmond Brandevoort,HMBV,51.46222305,5.60722208,Diepenbroeksingel,??,5707,Helmond,Netherlands
Helmond Brouwhuis,HMBH,51.47068,5.70177,Deltaweg,185-447,5709,Helmond,Netherlands
Hemiksem,LKM,51.13624,4.33828,Statieplaats,2-12,2620,Hemiksem,Belgium
Hemmen-Dodewaard,HMN,51.9222129,5.6737254,Boelenhamsestraat,8,6669 MN,Dodewaard,Netherlands
Hengelo,HGL,52.26166534,6.793889046,Stationsplein,321,7551 CN,Hengelo,Netherlands
Hengelo Gezondheidspark,HGLG,52.261667,6.773611,Magdalenalaan,8-9,7555 TA,Hengelo,Netherlands
Hengelo Oost,HGLO,52.26889038,6.819444656,Zwavertsweg,114,7552 ML,Hengelo,Netherlands
Herstal,LHS,50.66076,5.62231,Rue En Gr. Foxhalle,1,4040,Herstal,Belgium
Herzogenrath,HZ,50.870916,6.094486,Bahnhofstraße,17,52134,Herzogenrath,Germany
Hillegom,HIL,52.30250168,4.565555573,2e Loosterweg,2A,2182 CJ,Hillegom,Netherlands
Hilversum,HVS,52.22583389,5.18194437,Wilhelminastraat,1,1211 RH,Hilversum,Netherlands
Hilversum Media Park,HVSM,52.23805618,5.173888683,Mies Bouwman-boulevard,??,1217,Hilversum,Netherlands
Hilversum Sportpark,HVSP,52.21611023,5.187222004,Athene,??,1213,Hilversum,Netherlands
Hindeloopen,HNP,52.9464903,5.423063,Stationsweg,??,8713,Hindeloopen,Netherlands
Hoboken-Polder,FOE,51.18285,4.34831,Berkenrodelei,2,2660,Antwerpen,Belgium
Hoek van Holland Haven,HLD,51.97527695,4.128889084,Stationsweg,1,3151 HR,Hoek van Holland,Netherlands
Hoek van Holland Strand,HLDS,51.98166656,4.119722366,Stationsweg,86,3151 HS,Hoek van Holland,Netherlands
Hoensbroek,HB,50.90555573,5.930555344,Economiestraat,1,6433 KC,Hoensbroek,Netherlands
Hoevelaken,HVL,52.16652,5.45718,Rijksweg,??,3836,Stoutenburg-Noord,Netherlands
Hollandsche Rading,HOR,52.17777634,5.179166794,Vuurse Dreef,14,3739 KT,Hollandsche Rading,Netherlands
Holten,HON,52.28388977,6.420277596,Stationsstraat,10,7451 BH,Holten,Netherlands
Holzwickede,EHZW,51.504767,7.619647,Am Bahnhof,1,59439,Holzwickede,Germany
Hoofddorp,HFD,52.29333496,4.700555325,R-Net,??,2132,Hoofddorp,Netherlands
Hoogeveen,HGV,52.73389053,6.473610878,Stationsplein,1A,7901 AA,Hoogeveen,Netherlands
Hoogezand-Sappemeer,HGZ,53.15981813,6.77075386,Stationsweg,45,9601 BJ,Hoogezand,Netherlands
Hoogkarspel,HKS,52.69055557,5.183888912,Stationslaan,14,1616 CM,Hoogkarspel,Netherlands
Hoorn,HN,52.64472198,5.055555344,Stationsplein,2R,1621 HX,Hoorn,Netherlands
Hoorn Kersenboogerd,HNK,52.65361023,5.085555553,Rijnweg,51-52,1628 PC,Hoorn,Netherlands
Hopfgarten,HOPF,47.45525,12.14921,Gewerbestraße,6110,6361,??,Austria
Horst-Sevenum,HRT,51.42638779,6.042222023,Industrieweg,20,5975 RL,Sevenum,Netherlands
Houten,HTN,52.03402,5.16821,Kopermolen,??,3995,Houten,Netherlands
Houten Castellum,HTNC,52.01701,5.17949,Castellumpad,??,3995,Houten,Netherlands
Houthem-St Gerlach,SGL,50.87333298,5.797222137,Meerssenderweg,10,6301 JH,Valkenburg,Netherlands
Hove,MHO,51.153611,4.465278,Vincent Bavaisstraat,16,2540,Hove,Belgium
Hurdegaryp,HDG,53.2187783,5.934543,Stationsweg,39,9254 HA,Hurdegaryp,Netherlands
IJlst,IJT,53.0146614,5.6160801,Zuidwesthoekweg,4,8651 JB,IJlst,Netherlands
Innsbruck Hbf,INNSB,47.26328,11.401,Hauptbahnhof Unterführung,??,6020,Innsbruck,Austria
Jenbach,JENBAC,47.38844,11.77841,Bahnhofstraße,4,6200,Jenbach,Austria
Kaldenkirchen,KN,51.327184,6.203225,Bahnhofstraße,1A,41334,Nettetal,Germany
Kalmthout,FKTH,51.3909989,4.4668202,Statieplein,8,2920,Kalmthout,Belgium
Kampen,KPN,52.5597229,5.921666622,Spoorkade,2,8267 AA,Kampen,Netherlands
Kampen Zuid,KPNZ,52.5331,5.91309,Burgemeester Van Tuinenplein,??,8265,Kampen,Netherlands
Kapelle-Biezelinge,BZL,51.48083496,3.956111193,Stationsstraat,47-49,4421 AK,Kapelle,Netherlands
Kapellen,LKP,51.31362,4.43262,Koningin Astridlaan,42,2950,Kapellen,Belgium
Karlsruhe Hbf,KARLSR,48.9936223,8.400743,Bahnhofplatz,1,76137,Karlsruhe,Germany
Kerkrade Centrum,KRD,50.86166763,6.057499886,Museumplein,2,6461 MA,Kerkrade,Netherlands
Kerkrade West,KRW,50.85355,6.02578,Plein,37,6466 GG,Kerkrade,Netherlands
Kesteren,KTR,51.9313869,5.5833465,Stationsstraat,40,4041 CJ,Kesteren,Netherlands
Kijkuit,GKT,51.37867,4.46722,Standaertlei,??,2920,Kalmthout,Belgium
Kirchberg in Tirol,KIRCHB,47.44921,12.30953,Brixentalstraße,??,6365,Kirchberg in Tirol,Austria
Kitzbühel,KITZB,47.45411,12.39104,Bahnhofplatz,2,6370,Kitzbühel,Austria
Klarenbeek,KBK,52.17805481,6.083611012,Hoofdweg,8,7382 BH,Klarenbeek,Netherlands
Klimmen-Ransdaal,KMR,50.86639023,5.890555382,Mareheiweg,2,6343 EK,Klimmen,Netherlands
Koblenz Hbf,KKO,50.351085,7.588649,Bahnhofplatz,2,56068,Koblenz,Germany
Kohlscheid,KOHL,50.831728,6.074485,Grachtstraße,19,52134,Herzogenrath,Germany
Konin,KONIN,52.23702,18.22069,Rolna,2A,??,Konin,Poland
Kontich,FKI,51.133889,4.476667,Stationsplein,6,2550,Kontich,Belgium
Koog Bloemwijk,KBW,52.45861053,4.805555344,Provincialeweg,??,1541,Koog aan de Zaan,Netherlands
Koog-Zaandijk,KZD,52.4691658,4.804999828,Kogertunnel,??,1541,Koog aan de Zaan,Netherlands
Koudum-Molkwerum,KMW,52.9028197,5.4106913,Stationswei,22,8722 HB,Molkwerum,Netherlands
Krabbendijke,KBD,51.43333435,4.116944313,Spoorlaan,7,4413 AS,Krabbendijke,Netherlands
Krommenie-Assendelft,KMA,52.49511,4.75417,Saendelverlaan,2,1561 KS,Krommenie,Netherlands
Kropswolde,KW,53.1617362,6.7220882,Woldweg,46,9607 PR,Foxhol,Netherlands
Kruiningen-Yerseke,KRG,51.46500015,4.037222385,Stationsweg,14-20,4416,Kruiningen,Netherlands
Kufstein,KUFST,47.5831,12.16568,Südtiroler Platz,4-12,6330,Kufstein,Austria
Kutno,KUTNO,52.22694,19.34859,Henryka Siemiradzkiego,9,99-320,Kutno,Poland
Köln Hbf,KOLN,50.9432158,6.9589214,Bahnsteig Gleis 6 + 7,??,50667,Köln,Germany
Köln-Deutz,KKD,50.940874,6.975001,Ottoplatz,7,50679,Köln,Germany
Lage Zwaluwe,ZLW,51.69111252,4.66305542,Westelijke Parallelweg,11,4765 SK,Zevenbergschen Hoek,Netherlands
Landeck,LAND,47.14824,10.57839,Bahnhofstraße,20,6500,Landeck,Austria
Landgraaf,LG,50.89638901,6.01916647,Stationsplein,65-66,6372,Landgraaf,Netherlands
Landquart,LANDQ,46.96722,9.5538,Gassa,??,7302,Landquart,Switzerland
Landry,LANDRY,45.57414,6.73378,Avenue de la Gare,??,73210,Landry,France
Langerwehe,LANG,50.817525,6.355194,Bahnhofsplatz,14,52379,Langerwehe,Germany
Leer (Ostfriesland),LEER,53.23165,7.465283,Reimersstraße,6,26789,Leer (Ostfriesland),Germany
Leerdam,LDM,51.89472198,5.091388702,Parallelweg,13,4143 LA,Leerdam,Netherlands
Leeuwarden,LW,53.19583511,5.792222023,Achter Het Station,1,8932,Leeuwarden,Netherlands
Leeuwarden Achter d Hoven,ADH,53.19889,5.81639,Spoorstraat,186,8933 CJ,Leeuwarden,Netherlands
Leeuwarden Camminghaburen,LWC,53.2021808,5.8422968,Orionweg,45,8938,Leeuwarden,Netherlands
Legden,ELGD,52.034924,7.088538,Bahnhofstraße,19,48739,Legden,Germany
Leiden Centraal,LEDN,52.16611099,4.481666565,Stationsplein,3J,2312 AJ,Leiden,Netherlands
Leiden Lammenschans,LDL,52.14694595,4.492499828,Kamerlingh Onnesplein,4,2313 VL,Leiden,Netherlands
Lelystad Centrum,LLS,52.50777817,5.472777843,Stationsplein,5,8232 DL,Lelystad,Netherlands
Lette (Kr Coersfeld),ELET,51.8925,7.187,Bahnhofsallee,47,48653,Coesfeld,Germany
Leuven,LEUVEN,50.88136,4.71568,Martelarenplein,16,3000,Leuven,Belgium
Lichtenvoorde-Groenlo,LTV,52.01188,6.59641,Stationsstraat,16,7137 MX,Lievelde,Netherlands
Liers,LSL,50.69822,5.56848,Rue Provinciale,140-144,4042,Herstal,Belgium
Lille Europe,LILLEE,50.639444,3.074722,Avenue le Corbusier,1,59800,Lille,France
Limburg Süd,FLB,50.382498,8.096112,Londoner Straße,5,65552,Limburg an der Lahn,Germany
Livorno Centrale,LIVOR,43.56446,10.33529,Viale Magri Nicola Padre,39,57121,Livorno,Italy
Liège-Guillemins,LUIK,50.62436,5.56648,Avenue de l'Observatoire,124,4000,Liège,Belgium
Liège-Jonfosse,LUIKJ,50.64051,5.56197,Rue Pouplin,6-8,4000,Liège,Belgium
Liège-Palais,LUIKP,50.64648,5.57072,Rue Fond Servais,8,4000,Liège,Belgium
Lochem,LC,52.16666794,6.426388741,Stationsplein,1,7241 CV,Lochem,Netherlands
Lokeren,FLK,51.107777,3.9875,Stationsplein,15-27,9160,Lokeren,Belgium
London St. Pancras,LONDS,51.53239,0.12716,Gale Street,??,RM9 4UN,??,United Kingdom
Loppersum,LP,53.3347145,6.7472625,Stationslaan,10,9919 AB,Loppersum,Netherlands
Lunteren,LTN,52.08527756,5.624444485,Spoorstraat,4,6741 DE,Lunteren,Netherlands
Lüdinghausen,ELDH,51.76184,7.43165,Industriestraße,2,59348,Lüdinghausen,Germany
Lünen Hbf,ELUE,51.61713,7.52949,Münsterstraße,50,44534,Lünen,Germany
Maarheeze,MZ,51.30376236,5.63034296,Den Engelsman,6,6026 RB,Maarheeze,Netherlands
Maarn,MRN,52.06416702,5.369999886,Rijksweg,??,3951,Maarn,Netherlands
Maarssen,MAS,52.13527679,5.033611298,Safariweg,34-36,3605,Maarssen,Netherlands
Maassluis,MSS,51.91611099,4.254722118,Prinses Beatrixlaan,12,3143 LA,Maassluis,Netherlands
Maassluis West,MSW,51.92583466,4.236111164,Koningshoek,??,3144,Maassluis,Netherlands
Maastricht,MT,50.85027695,5.705555439,Stationsplein,29,6221 BT,Maastricht,Netherlands
Maastricht Noord,MTN,50.87087,5.71774,Mariënwaard,44,6222 AN,Maastricht,Netherlands
Maastricht Randwyck,MTR,50.8386116,5.717222214,Universiteitssingel,30,6229 ER,Maastricht,Netherlands
Mainz Hbf,FMZ,50.001117,8.25872,Bahnhofplatz,1,55116,Mainz,Germany
Mannheim Hbf,MANNHE,49.479354,8.468921,Tunnelstraße,??,68163,Mannheim,Germany
Mantgum,MG,53.1296368,5.7131996,Tsjeintgum,??,9022,Mantgum,Netherlands
Mariënberg,MRB,52.50944519,6.575277805,Stationsweg,2,7692 AC,Mariënberg,Netherlands
Marne-la-Vallée-Chessy,MARNE,48.86826,2.78218,Rue Morris,1,77700,Chessy,France
Marseille-St-Charles,MARS,43.30381,5.38195,Avenue Pierre Sémard,2,13001,Marseille,France
Martenshoek,MTH,53.1607232,6.7402989,Spoorstraat-Zuid,36,9602 AA,Hoogezand,Netherlands
Mechelen,MECH,51.01786,4.48306,Koning Albertplein,30,2800,Mechelen,Belgium
Mechelen-Nekkerspoel,LNK,51.03,4.49,Nekkerspoelstraat,2,2800,Mechelen,Belgium
Meerssen,MES,50.88287939,5.750999451,Stationsplein,4,6231 CN,Meerssen,Netherlands
Melsele,LM,51.210556,4.286667,Beekmolenstraat,1,9120,Beveren,Belgium
Meppel,MP,52.69083405,6.197500229,Leonard Springerlaan,4,7941 GW,Meppel,Netherlands
Metelen Land,EMTE,52.162444,7.254423,Naendorf,74,48629,Metelen,Germany
Middelburg,MDB,51.49472046,3.617222309,Segeerssingel,64,4337 LH,Middelburg,Netherlands
Milmort,BLTM,50.69301,5.59983,Rue de l'Escousset,38,4041,Herstal,Belgium
Minden (Westf.),MINDEN,52.290138,8.934728,Viktoriastraße,??,32423,Minden,Germany
Montabaur,KMB,50.444834,7.825333,Bahnallee,2,56410,Montabaur,Germany
Mook Molenhoek,MMLH,51.77158,5.88145,Lierdwarsweg,??,6584,Molenhoek,Netherlands
Mortsel-Deurnesteenweg,GMD,51.1825,4.447222,Deurnestraat,201,2640,Mortsel,Belgium
Mortsel-Oude God,GMOG,51.171111,4.455833,stadsplein,??,2640,Mortsel,Belgium
Moutiers-Salins-Brides,MOUT,45.48664,6.53105,Avenue des Xvième Jeux Olympiques,249,73600,Moûtiers,France
Mönchengladbach Hbf,MCGB,51.196583,6.446111,Europaplatz,1,41061,Mönchengladbach,Germany
München Hbf,MUNCHH,48.14020334,11.55834675,Bahnhofplatz,2,80335,München,Germany
Münster (Westf.) Hbf,MUNST,51.956892,7.635895,Berliner Platz,23,48143,Münster,Germany
Münster Zentrum Nord,ENHF,51.984987,7.63861,Im Hagenfeld,101,48147,Münster,Germany
Münster-Häger,ENBE,52.022327,7.562668,Plantstaken,30,48161,Münster,Germany
Naarden-Bussum,NDB,52.28027725,5.156944275,Parallelweg,11,1405 AE,Bussum,Netherlands
Neuss Hbf,NEUSS,51.20444,6.68468,Further Straße,2,41462,Neuss,Germany
Niel,LNI,51.11154,4.33845,Stationsstraat,143,2845,Niel,Belgium
Nieuw Amsterdam,NA,52.71861267,6.848610878,Veilingstraat,41,7844 NX,Veenoord,Netherlands
Nieuw Vennep,NVP,52.25888824,4.645555496,Venneperweg,301,2153 MA,Nieuw-Vennep,Netherlands
Nieuwerkerk a/d IJssel,NWK,51.96527863,4.616944313,Oranjepad,2,2911 AP,Nieuwerkerk aan Den IJssel,Netherlands
Nieuwkerken-Waas,FNU,51.185556,4.185832,Heihoekstraat,7,9100,Sint-Niklaas,Belgium
Nijkerk,NKK,52.22222137,5.493888855,Willem Alexanderplein,16,3862 CE,Nijkerk,Netherlands
Nijmegen,NM,51.84361267,5.852222443,Tunnelweg,??,??,Nijmegen,Netherlands
Nijmegen Dukenburg,NMD,51.82416534,5.795555592,Zwanenveld,8132-8204,6538,Nijmegen,Netherlands
Nijmegen Goffert,NMGO,51.8273,5.822722,Mulderspad,??,6534,Nijmegen,Netherlands
Nijmegen Heyendaal,NMH,51.82694626,5.867499828,Verlengde Groenestraat,21,6525 EG,Nijmegen,Netherlands
Nijmegen Lent,NML,51.861811,5.859686,Snelbinder,??,6663,Nijmegen,Netherlands
Nijverdal,NVD,52.36555,6.471111,N35,??,7443,Nijverdal,Netherlands
Noorderkempen,NDKP,51.3573,4.63273,??,??,2960,Brecht,Belgium
Nordwalde,ENOW,52.077618,7.461706,Am Bahnhof,12,48356,Nordwalde,Germany
Nunspeet,NS,52.37083435,5.785277843,Plesmanlaan,3,8072 PT,Nunspeet,Netherlands
Nuth,NH,50.91944504,5.89277792,Stationsplein,1,6361 BG,Nuth,Netherlands
Nürnberg Hbf,NURNB,49.4449634,11.0826087,Hinterm Bahnhof,22,90459,Nürnberg,Germany
Obdam,OBD,52.67805481,4.907222271,Stationsweg,3,1713 HM,Obdam,Netherlands
Oberhausen Hbf,OBERH,51.47512,6.852038,Willy-Brandt-Platz,1A,46045,Oberhausen,Germany
Ochtrup,EOP,52.201703,7.182643,Am Bahnhof,4,48607,Ochtrup,Germany
Offenburg,RO,48.476475,7.946723,Rammersweierstraße,32,77654,Offenburg,Germany
Oisterwijk,OT,51.58222198,5.19416666,Spoorlaan,52A,5061 HB,Oisterwijk,Netherlands
Oldenzaal,ODZ,52.30638885,6.934722424,Stationsstraat,12,7573 AT,Oldenzaal,Netherlands
Olst,OST,52.33472061,6.113055706,Stationsweg,34,8121 CL,Olst,Netherlands
Ommen,OMN,52.50944519,6.415833473,Wolfskuilstraat,22,7731 AT,Ommen,Netherlands
Oosterbeek,OTB,51.99499893,5.840000153,Johannahoeveweg,4,6861 WH,Oosterbeek,Netherlands
Opheusden,OP,51.9261615,5.6371145,Parallelweg,6,6669 MJ,Dodewaard,Netherlands
Osnabrück Hbf,OSNH,52.272851,8.061781,Hamburger Straße,5,49084,Osnabrück,Germany
Oss,O,51.76555634,5.532222271,Spoorlaan,70,5348 KC,Oss,Netherlands
Oss West,OW,51.75805664,5.50555563,Van Schaikstraat,??,5344,Oss,Netherlands
Oudenbosch,ODB,51.58777618,4.533333302,Stationsstraat,9,4731 GM,Oudenbosch,Netherlands
Overveen,OVN,52.39110947,4.60611105,Tetterodeweg,3B,2051 EE,Overveen,Netherlands
Paris-Nord,PARIS,48.87977,2.35575,Rue de Dunkerque,19,75010,Paris,France
Plochingen,TP,48.71308,9.41081,Bahnhof,1,73207,Plochingen,Germany
Poznan Gl.,POZN,52.40199,16.91087,Peron 5,??,60-101,Poznań,Poland
Praha hl.n.,PRAHA,50.08306,14.435,Wilsonova,8,110 00,Prague,Czech Republic
Praha-Holesovice,PRAHOL,50.1102,14.44,Partyzánská,24,170 00,Prague,Czech Republic
Preussen,EPRN,51.58833,7.53933,Bebelstraße,203,44532,Lünen,Germany
Purmerend,PMR,52.50305557,4.953610897,Beatrixplein,89,1441 JR,Purmerend,Netherlands
Purmerend Overwhere,PMO,52.51139069,4.968333244,Boeierstraat,42,1443 EN,Purmerend,Netherlands
Purmerend Weidevenne,PMW,52.49659063,4.935629368,Purmerland,12,1448 MD,Purmerend,Netherlands
Putten,PT,52.26499939,5.575277805,Stationsstraat,127,3881 AC,Putten,Netherlands
Puurs,FRP,51.07716,4.28273,Stationsstraat,35-45,2870,Puurs,Belgium
Raalte,RAT,52.39166641,6.277500153,Stationsstraat,1,8102 EB,Raalte,Netherlands
Rathenow,LRW,52.599444,12.354721,Dunckerplatz,21A,14712,Rathenow,Germany
Ravenstein,RVS,51.79416656,5.635833263,Stationssingel,123,5371 BB,Ravenstein,Netherlands
Reuver,RV,51.28321917,6.078958511,Wilhelminalaan,78A,5953 HB,Reuver,Netherlands
Rheden,RH,52.00999832,6.030555725,Groenestraat,5A,6991 GA,Rheden,Netherlands
Rheine,RHEINE,52.276299,7.434255,Bahnhofstraße,32,48431,Rheine,Germany
Rhenen,RHN,51.95861053,5.578333378,Lijnweg,??,3911,Rhenen,Netherlands
Rijssen,RSN,52.31222153,6.520277977,Stationsdwarsweg,7,7461 AR,Rijssen,Netherlands
Rijswijk,RSW,52.03972244,4.31916666,Hoogkamerlaan,110,2284 GN,Rijswijk,Netherlands
Rilland-Bath,RB,51.42277908,4.161110878,Haltestraat,47,4411 NE,Rilland,Netherlands
Roermond,RM,51.1930542,5.994166851,Stationsplein,8,6041 GN,Roermond,Netherlands
Roodeschool,RD,53.4192128,6.7606167,Stationsstraat,2,9983 ST,Roodeschool,Netherlands
Roosendaal,RSD,51.54027939,4.458333492,Stationsplein,1A,4702 VX,Roosendaal,Netherlands
Rosendahl-Holtwick,EHW,51.99946726,7.121500969,Ringstraße,50,48720,Rosendahl,Germany
Rosmalen,RS,51.71472168,5.368055344,Vendelierstraat,15,5241 TT,Rosmalen,Netherlands
Rotterdam Alexander,RTA,51.95194626,4.553611279,Station,??,3068,Rotterdam,Netherlands
Rotterdam Blaak,RTB,51.92027664,4.488888741,Kolk,172,3011 MD,Rotterdam,Netherlands
Rotterdam Centraal,RTD,51.92499924,4.46888876,Provenierstunnel,??,3013,Rotterdam,Netherlands
Rotterdam Lombardijen,RLB,51.88000107,4.53138876,Spinozaweg,??,??,Rotterdam,Netherlands
Rotterdam Noord,RTN,51.9422226,4.481666565,Bergweg,8,3036 BA,Rotterdam,Netherlands
Rotterdam Stadion,RTST,51.89389038,4.519721985,Olympiaweg,49,3077 AL,Rotterdam,Netherlands
Rotterdam Zuid,RTZ,51.90444565,4.510277748,Rosestraat,1087,3071 AL,Rotterdam,Netherlands
Ruisbroek-Sauvegarde,FSV,51.08115,4.32551,Achterhoefweg,59,2870,Puurs,Belgium
Ruurlo,RL,52.0810888,6.4492656,Vordenseweg,??,7261,Ruurlo,Netherlands
Rzepin,RZEPIN,52.35022,14.81507,??,??,??,Rzepin,Poland
Saalfelden,SAALF,47.42684,12.82942,Bahnhofstraße,71,5760,Saalfelden am Steinernen Meer,Austria
Santpoort Noord,SPTN,52.43388748,4.632500172,Santpoortse Dreef,1,2071 TP,Santpoort-Noord,Netherlands
Santpoort Zuid,SPTZ,52.41972351,4.631388664,Willem de Zwijgerlaan,59,2082 BB,Santpoort-Zuid,Netherlands
Sappemeer Oost,SPM,53.1589183,6.7955648,Borgercompagniesterstraat,72,9611 KC,Sappemeer,Netherlands
Sassenheim,SSH,52.215278,4.517222,Stationsplein,??,2361,Warmond,Netherlands
Sauwerd,SWD,53.29113,6.5404,Stationsstraat,35-37,9771,Sauwerd,Netherlands
Schagen,SGN,52.7844429,4.805277824,Spoorlaan,1,1741 EN,Schagen,Netherlands
Scheemda,SDA,53.1655362,6.9777775,Stationsstraat,85,9679 EC,Scheemda,Netherlands
Schelle,SCHLL,51.12555,4.34023,Steenwinkelstraat,5-11,2627,Schelle,Belgium
Schiedam Centrum,SDM,51.92124381,4.408993721,Brandersbrug,??,3112,Schiedam,Netherlands
Schiedam Nieuwland,NWL,51.92222214,4.382222176,Bijdorpplein,1,3118 JE,Schiedam,Netherlands
Schin op Geul,SOG,50.85638809,5.872222424,Baanweg,3,6305,Schin op Geul,Netherlands
Schinnen,SN,50.93916702,5.874444485,Borgerweg,2,6365 CW,Schinnen,Netherlands
Schiphol Airport,SHL,52.30944443,4.761944294,Aankomstpassage,29,1118 AX,Schiphol,Netherlands
Schwarzach-St. Veit,SCHWAR,47.31853,13.15446,Bahnhofstraße,24,5620,Schwarzach im Pongau,Austria
Schwelm,KSWE,51.290526,7.289681,Bahnhofplatz,2,58332,Schwelm,Germany
Schwerte (Ruhr),ESRT,51.442281,7.55896,Bahnhofstraße,35,58239,Schwerte,Germany
Selm,ESEM,51.707885,7.453396,Ladestraße,1,59379,Selm,Germany
Selm-Beifang,ESEB,51.692947,7.454829,Beifanger Weg,76,59379,Selm,Germany
Siegburg/Bonn,KSB,50.7939411,7.2030017,Europaplatz,3,53721,Siegburg,Germany
Simpelveld,SPV,50.83147507,5.979738235,Gaasstraat,3A,6369 VA,Simpelveld,Netherlands
Sinaai,LSW,51.143333,4.068889,Schrijberg,17-103,9111,Sint-Niklaas,Belgium
Sint-Katelijne-Waver,FWA,51.07,4.496111,Stationsplein,3,2860,Sint-Katelijne-Waver,Belgium
Sint-Niklaas,FSN,51.171944,4.144167,Noordlaan,32,9100,Sint-Niklaas,Belgium
Sittard,STD,51.00166702,5.858611107,Stationsplein,2,6131 AS,Sittard,Netherlands
Sliedrecht,SDT,51.82972336,4.778333187,Parallelweg,3,3364 AK,Sliedrecht,Netherlands
Sliedrecht Baanhoek,SDTB,51.829722,4.743333,Intermezzo,??,3364,Sliedrecht,Netherlands
Sneek,SK,53.0328688,5.6523969,Doctor Boumaweg,11-15,8601,Sneek,Netherlands
Sneek Noord,SKND,53.0409319,5.6631808,Worp Tjaardastraat,22,8602 XE,Sneek,Netherlands
Soest,ST,52.17333221,5.309999943,Stationsweg,16,3764 CJ,Soest,Netherlands
Soest Zuid,STZ,52.16527939,5.303055763,Eikenlaan,44,3768 ET,Soest,Netherlands
Soestdijk,SD,52.18361282,5.300000191,Het Oude Raadhuis,75,3761 AW,Soest,Netherlands
Spaubeek,SBK,50.9430542,5.851666451,Oliemolenderweg,??,6176,Spaubeek,Netherlands
Spekholzerheide,SPH,50.85355,6.02578,Plein,37,6466 GG,Kerkrade,Netherlands
St-Mariaburg,MARIA,51.29126,4.43495,Schriek,218,2950,Antwerpen,Belgium
St. Johann im Pongau,STJOHP,47.34811,13.19486,Gerbergasse,??,5600,Sankt Johann im Pongau,Austria
St. Johann in Tirol,STJOH,47.51962,12.43079,Bahnhofstraße,24,6380,Sankt Johann in Tirol,Austria
Stavoren,STV,52.8865535,5.3600212,Stationsweg,19,8715 ES,Stavoren,Netherlands
Stedum,STM,53.3262092,6.6875551,Stationsstraat,2,9921 PX,Stedum,Netherlands
Steenwijk,SWK,52.79151099,6.114555763,Stationsplein,10,8331 GM,Steenwijk,Netherlands
Steinfurt-Borghorst,EBGO,52.118791,7.397581,Am Bahnhof,9-17,48565,Steinfurt,Germany
Steinfurt-Burgsteinfurt,EBFT,52.147384,7.32934,Bahnhofsplatz,6,48565,Steinfurt,Germany
Steinfurt-Grottenkamp,EGRK,52.123439,7.376031,Fichtenweg,11,48565,Steinfurt,Germany
Stendal,LS,52.594723,11.854412,Bahnhofstraße,32,39576,Stendal,Germany
Stolberg Altstadt,STOLA,50.763938,6.230287,Brauereistraße,8,52222,Stolberg (Rheinland),Germany
Stolberg GBF,STOLGB,0,0,??,,,,
Stolberg Hbf,STOLB,50.794917,6.218432,Rhenaniastraße,4,52222,Stolberg (Rheinland),Germany
Stolberg Mühlener Bahnhof,STOLMB,50.773589,6.223898,Talbahnstraße,1,52222,Stolberg (Rheinland),Germany
Stolberg Rathaus,STOLR,50.768774,6.229604,Europastraße,??,52222,Stolberg (Rheinland),Germany
Stolberg Schneidemuhle,STOLSM,50.784904,6.219012,Eisenbahnstraße,998,52222,Stolberg (Rheinland),Germany
Stuttgart Hbf,TS,48.784084,9.181635,Bahnsteig Gleis 5 + 6,??,70173,Stuttgart,Germany
Susteren,SRN,51.06138992,5.863055706,Spoorstraat,60,6114 EM,Susteren,Netherlands
Swalmen,SM,51.23582,6.03228,A73,??,6071,Swalmen,Netherlands
Tantow,WTA,53.26928,14.34793,Bahnhofstraße,1,16307,Tantow,Germany
Tegelen,TG,51.33894,6.14253,Steenweg,53,5932 AC,Tegelen,Netherlands
Terborg,TBG,51.9224549,6.3642466,Stationsweg,25,7061 CT,Terborg,Netherlands
Tiel,TL,51.88944626,5.422222137,Spoorstraat,5,4001 CN,Tiel,Netherlands
Tiel Passewaaij,TPSW,51.87388992,5.392222404,Zijweg Oude Tielseweg,1,4014 PG,Wadenoijen,Netherlands
Tilburg,TB,51.5605545,5.083611012,Spoorlaan,37,5038 CB,Tilburg,Netherlands
Tilburg Reeshof,TBR,51.57361221,4.99444437,Ketelhavenplein,??,5045,Tilburg,Netherlands
Tilburg Universiteit,TBU,51.56499863,5.051111221,Statenlaan,??,5037,Tilburg,Netherlands
Tongeren,FTG,50.784167,5.473056,Zagerijstraat,6,3700,Tongeren,Belgium
Twello,TWL,52.23777771,6.098610878,Koningin Julianastraat,28,7391 EB,Twello,Netherlands
Uitgeest,UTG,52.52166748,4.701666832,Gorskamplaan,??,1911,Uitgeest,Netherlands
Uithuizen,UHZ,53.4099568,6.6748869,Industrieweg,2,9981 HJ,Uithuizen,Netherlands
Uithuizermeeden,UHM,53.4145845,6.7202975,Stationsstraat,20,9982 HA,Uithuizermeeden,Netherlands
Ulm Hbf,TU,48.399015,9.982165,Schillerstraße,41,89077,Ulm,Germany
Unna,EUN,51.5385828,7.6953056,Märkische Straße,2-19,59423,Unna,Germany
Usquert,UST,53.4014742,6.6093776,Stationsstraat,2,9988 RP,Usquert,Netherlands
Usti nad Labem,USTI,50.65956,14.04473,U Nádraží,6,400 01,Ústí nad Labem,Czech Republic
Utrecht Centraal,UT,52.08889008,5.110277653,Stationshal,6,3511 CE,Utrecht,Netherlands
Utrecht Leidsche Rijn,UTLR,52.09896,5.06523,Huppeldijk,??,3541,Utrecht,Netherlands
Utrecht Lunetten,UTL,52.06555557,5.14416647,Furkaplateau,??,3524,Utrecht,Netherlands
Utrecht Maliebaan,UTM,52.08777618,5.131388664,Maliebaanstation,16,3581 XW,Utrecht,Netherlands
Utrecht Overvecht,UTO,52.11000061,5.124722004,Tiberdreef,24,3561 GG,Utrecht,Netherlands
Utrecht Terwijde,UTT,52.10055542,5.041666508,Hof Ter Weydeweg,27,3543 BC,Utrecht,Netherlands
Utrecht Zuilen,UTZL,52.103055,5.09,Geraniumstraat,56,3551 HD,Utrecht,Netherlands
Valence TGV,VALTGV,44.9278,4.89321,Rue Denis Papin,39-45,26000,Valence,France
Valkenburg,VK,50.86972046,5.832221985,Parallelweg,57,6301 XZ,Valkenburg,Netherlands
Varsseveld,VSV,51.937257,6.458839,Spoorstraat,53,7051 CH,Varsseveld,Netherlands
Veendam,VDM,53.10324,6.88475,Spoorweg,6,9641 KH,Veendam,Netherlands
Veenendaal Centrum,VNDC,52.02000046,5.548611164,Rembrandtlaan,15,3904 ZJ,Veenendaal,Netherlands
Veenendaal West,VNDW,52.0280571,5.53138876,Dichterslaan,2,3906 EN,Veenendaal,Netherlands
Veenendaal-De Klomp,KLP,52.04583359,5.573888779,Dokter Hoolboomweg,??,6745,De Klomp,Netherlands
Veenwouden tot 13 dec,VWD,53.2351834,5.9886615,Stasjonwei,1,9269 PG,Feanwâlden,Netherlands
Velp,VP,51.99472046,5.980278015,Kastanjelaan,11-12,6883 HZ,Velp,Netherlands
Venlo,VL,51.36360931,6.172777653,Stationsplein,3,5913 AA,Venlo,Netherlands
Venray,VRY,51.5265681,6.014177799,Stationsweg,213,5807 AB,Oostrum,Netherlands
Vierlingsbeek,VLB,51.59193,5.99714,Soetendaal,9,5821 BL,Vierlingsbeek,Netherlands
Viersen,VIERS,51.25516,6.40388,Limburgweg,8,41748,Viersen,Germany
Visé,FVS,50.73781,5.69232,E25,??,4600,Visé,Belgium
Vlaardingen Centrum,VDG,51.9030571,4.344166756,Parallelweg,10,3131 DG,Vlaardingen,Netherlands
Vlaardingen Oost,VDO,51.91027832,4.361666679,Burgemeester van Lierplein,65,3134,Vlaardingen,Netherlands
Vlaardingen West,VDW,51.90416718,4.313055515,George Stephensonweg,25,3133 KJ,Vlaardingen,Netherlands
Vleuten,VTN,52.10305405,5.010833263,Stationsstraat,35,3451 BW,Utrecht,Netherlands
Vlissingen,VS,51.44583511,3.595277786,Veerhavenweg,??,4382,Vlissingen,Netherlands
Vlissingen Souburg,VSS,51.46472168,3.595277786,Bermweg,1,4388 CA,Oost-Souburg,Netherlands
Voerendaal,VDL,50.88722229,5.930277824,Hoolstraat,44,6367 GD,Voerendaal,Netherlands
Voorburg,VB,52.06666565,4.359444618,Utrechtsebaan,??,2271,Voorburg,Netherlands
Voorhout,VH,52.22444534,4.484444618,De Gaasbak,??,2215,Voorhout,Netherlands
Voorschoten,VST,52.12527847,4.432499886,Geestwoningpad,??,2254,Voorschoten,Netherlands
Voorst-Empe,VEM,52.15750122,6.143610954,IJsselstraat,2,7399 RC,Empe,Netherlands
Vorden,VD,52.1071949,6.3170457,Stationsweg,33,7251 EL,Vorden,Netherlands
Vriezenveen,VZ,52.40203,6.60041,Wierdenseweg,16,7671 JK,Vriezenveen,Netherlands
Vroomshoop,VHP,52.4571921,6.5696679,Stationslaan,16,7681 DL,Vroomshoop,Netherlands
Vught,VG,51.65555573,5.291944504,Stationsstraat,29,5261 VB,Vught,Netherlands
Waddinxveen,WAD,52.04416656,4.649722099,Puttelaan,??,2742,Waddinxveen,Netherlands
Waddinxveen Noord,WADN,52.05500031,4.648333549,Sparrengaarde,45,2742 DM,Waddinxveen,Netherlands
Warffum,WFM,53.3908431,6.5671364,??,??,9989,Warffum,Netherlands
Warszawa Centralna,WARSZC,52.22886,21.00323,Aleje Jerozolimskie,54,??,Warszawa,Poland
Warszawa Wschodnia,WARSAW,52.25155,21.05233,Lubelska,1,??,Warszawa,Poland
Weener,WR,53.16311,7.3442,Am Bahnhof,1A,26826,Weener,Germany
Weert,WT,51.24861145,5.703610897,Louis Regoutstraat,??,6006,Weert,Netherlands
Weesp,WP,52.31277847,5.043055534,Stationsplein,2,1382 AD,Weesp,Netherlands
Wehl,WL,51.9578065,6.213844,Stationsstraat,30A,7031 BR,Wehl,Netherlands
Westervoort,WTV,51.96286,5.9695,Noordelijke Parallelweg,1A,6931 ER,Westervoort,Netherlands
Wezep,WZ,52.45416641,6.002500057,Stationsweg,109,8091 AC,Wezep,Netherlands
Wien Westbahnhof,WIENW,48.19687,16.33727,Westbahnhof,140/1,1150,Wien,Austria
Wierden,WDN,52.36138916,6.591666698,Spoorstraat,1,7641 BJ,Wierden,Netherlands
Wijchen,WC,51.8116684,5.73083353,Zomertaling,77,6601,Wijchen,Netherlands
Wijhe,WH,52.39027786,6.140555382,Spoorslag,??,8131,Wijhe,Netherlands
Wildert,GWD,51.4277061,4.4633962,Sint-Jansstraat,22,2910,Essen,Belgium
Winschoten,WS,53.1392377,7.035101,Stationsweg,22,9671 AN,Winschoten,Netherlands
Winsum,WSM,53.3300994,6.5202905,Ubbo J. Mansholtplein,1,9951 BX,Winsum,Netherlands
Winterswijk,WW,51.9677307,6.7155181,Stationsstraat,34,7101 GH,Winterswijk,Netherlands
Winterswijk West,WWW,51.97453,6.70417,Europark,24,7102 AM,Winterswijk,Netherlands
Woerden,WD,52.08499908,4.893610954,Stationsplein-Zuid,1,3446 GM,Woerden,Netherlands
Wolfheze,WF,52.0055542,5.79361105,Johannahoeveweg,12,6874 CD,Wolfheze,Netherlands
Wolfsburg,HWOB,52.429492,10.788195,Willy-Brandt-Platz,3,38440,Wolfsburg,Germany
Wolvega,WV,52.88083267,6.003611088,Stationsweg,10,8471 AR,Wolvega,Netherlands
Workum,WK,52.9724864,5.4564285,Parallelwei,3,8711 CH,Workum,Netherlands
Wormerveer,WM,52.48916626,4.792222023,Wandelweg,8,1521 AG,Wormerveer,Netherlands
Wuppertal Barmen,KWBA,51.267082,7.195929,Gewerbeschulstraße,8,42287,Wuppertal,Germany
Wuppertal Hbf,WUPPH,51.25433,7.14939,Distelbeck,55-57,42119,Wuppertal,Germany
Wuppertal Oberbarmen,KWO,51.273839,7.221483,Berliner Platz,15,42277,Wuppertal,Germany
Wuppertal-Vohwinkel,WUPPV,51.23351,7.07237,Lienhardstraße,1,42329,Wuppertal,Germany
Wörgl,WORGL,47.49178,12.06059,Bahnhofplatz,6,6300,Wörgl,Austria
Würzburg Hbf,WURZB,49.80179,9.9358,Bahnhofplatz,4,97070,Würzburg,Germany
Zaandam,ZD,52.43888855,4.813611031,Provincialeweg,25,1506 MA,Zaandam,Netherlands
Zaandam Kogerveld,ZDK,52.45666504,4.820277691,Veldbloemenweg,2A,1508 WV,Zaandam,Netherlands
Zaltbommel,ZBM,51.80888748,5.263333321,Oude Stationsweg,71,5301 GL,Zaltbommel,Netherlands
Zandvoort aan Zee,ZVT,52.37527847,4.532777786,Haltestraat,77,2042 LL,Zandvoort,Netherlands
Zell am See,ZELL,47.32053,12.79658,Bahnhofplatz,1a,5700,Zell am See,Austria
Zetten-Andelst,ZA,51.920056,5.7228408,Parallelweg Noord,4,6671 DK,Zetten,Netherlands
Zevenaar,ZV,51.92305374,6.071944237,Ringbaan Zuid,8,6905,Zevenaar,Netherlands
Zevenbergen,ZVB,51.64042,4.60904,Gildelaan,11,4761 BA,Zevenbergen,Netherlands
Zoetermeer,ZTM,52.04750061,4.477222443,Nelson Mandelabrug,6,2719 EZ,Zoetermeer,Netherlands
Zoetermeer Oost,ZTMO,52.04639053,4.492777824,Zuidweg,??,2718,Zoetermeer,Netherlands
Zuidbroek,ZB,53.15961228,6.8679142,Stationsstraat,5,9636 BA,Zuidbroek,Netherlands
Zuidhorn,ZH,53.2486292,6.4062361,Hooiweg,9,9801 AJ,Zuidhorn,Netherlands
Zutphen,ZP,52.14527893,6.19416666,Havenstraat,25-35,7202,Zutphen,Netherlands
Zwaagwesteinde tot 13 dec,ZWW,53.24817,6.03463,Bûterwei,14,9271 EN,De Westereen,Netherlands
Zwijndrecht,ZWD,51.81499863,4.641666889,Westelijke Parallelweg,50,3331 EW,Zwijndrecht,Netherlands
Zwijndrecht (Belgie),LZD,51.214167,4.33,Fortlaan,5-49,2070,Zwijndrecht,Belgium
Zwolle,ZL,52.5047226,6.091944218,Stationsplein,25,8011 CW,Zwolle,Netherlands
Zürich HB,ZUE,47.37819,8.5392,Museumstrasse,1,8001,Zürich,Switzerland
Ötztal,OETZ,47.23848,10.85911,Bahnhofplatz,2,6430,??,Austria
